BEIDOU-2 IGSO-1 (C06)   
1 36828U 10036A   25274.62951184 -.00000130  00000+0  00000+0 0  9996
2 36828  54.2764 165.3028 0051118 217.1117 319.3386  1.00297170 55503
BEIDOU-2 G4 (C04)       
1 37210U 10057A   25276.60048059 -.00000109  00000+0  00000+0 0  9999
2 37210   3.0041  70.1417 0008952 172.8764 145.7489  1.00270740 54718
BEIDOU-2 IGSO-2 (C07)   
1 37256U 10068A   25276.66455213 -.00000167  00000+0  00000+0 0  9995
2 37256  48.0122 275.0108 0048186 217.2790 225.2540  1.00254103 54229
BEIDOU-2 IGSO-3 (C08)   
1 37384U 11013A   25275.83923586 -.00000161  00000+0  00000+0 0  9993
2 37384  62.0495  42.5935 0036507 180.7510 197.4133  1.00288124 53084
BEIDOU-2 IGSO-4 (C09)   
1 37763U 11038A   25276.68044081 -.00000050  00000+0  00000+0 0  9996
2 37763  54.5787 167.9807 0144982 230.4715 311.5021  1.00256426 52075
BEIDOU-2 IGSO-5 (C10)   
1 37948U 11073A   25275.79860587 -.00000106  00000+0  00000+0 0  9990
2 37948  48.1519 274.7298 0110055 221.8749 257.8382  1.00262651 50558
BEIDOU-2 G5 (C05)       
1 38091U 12008A   25276.58029997  .00000060  00000+0  00000+0 0  9997
2 38091   2.9280  70.9308 0007877 222.2039 347.0193  1.00272530 49796
BEIDOU-2 M3 (C11)       
1 38250U 12018A   25275.98577345 -.00000021  00000+0  00000+0 0  9991
2 38250  55.9778 313.5368 0024406 267.9627  91.8276  1.86229799 91157
BEIDOU-2 M4 (C12)       
1 38251U 12018B   25275.91827979 -.00000020  00000+0  00000+0 0  9995
2 38251  55.8799 312.7737 0015575 268.1370  91.7537  1.86232081 91153
BEIDOU-2 M6 (C14)       
1 38775U 12050B   25274.01822503  .00000027  00000+0  00000+0 0  9996
2 38775  56.3155  71.4788 0010735 356.6324   3.3836  1.86230970 88484
BEIDOU-2 G6 (C02)       
1 38953U 12059A   25276.58531387 -.00000172  00000+0  00000+0 0  9996
2 38953   3.7641  76.1958 0006351 310.2598 280.7994  1.00274937 47339
BEIDOU-3S IGSO-1S (C31) 
1 40549U 15019A   25273.98648793 -.00000115  00000+0  00000+0 0  9997
2 40549  49.6884 298.5871 0041035 197.1846 320.9941  1.00255583 38471
BEIDOU-3S M2S (C58)     
1 40748U 15037A   25275.58590007 -.00000019  00000+0  00000+0 0  9993
2 40748  55.0989 310.9070 0012730 257.0525 102.8720  1.86229219 69320
BEIDOU-3S M1S (C57)     
1 40749U 15037B   25273.14106588 -.00000030  00000+0  00000+0 0  9994
2 40749  55.0978 310.9814 0002551 352.4537   7.6047  1.86254040 69287
BEIDOU-3S IGSO-2S (C56) 
1 40938U 15053A   25274.94581382 -.00000101  00000+0  00000+0 0  9999
2 40938  49.6271 261.8549 0061899 189.7915 354.7434  1.00286863 36769
BEIDOU-2 IGSO-6 (C13)   
1 41434U 16021A   25275.81067054 -.00000137  00000+0  00000+0 0  9998
2 41434  59.8681  40.6102 0057127 228.0123 130.0968  1.00267315 34894
BEIDOU-2 G7 (C03)       
1 41586U 16037A   25276.61742806 -.00000351  00000+0  00000+0 0  9995
2 41586   1.5799  66.7920 0005335 344.7232 293.8872  1.00268981  4310
BEIDOU-3 M1 (C19)       
1 43001U 17069A   25275.93157782  .00000034  00000+0  00000+0 0  9999
2 43001  56.4653  71.5732 0007062 313.1031  46.8610  1.86231204 53810
BEIDOU-3 M2 (C20)       
1 43002U 17069B   25275.33287670  .00000033  00000+0  00000+0 0  9993
2 43002  56.4645  71.6284 0005614 353.2271   6.7893  1.86230816 53790
BEIDOU-3 M7 (C27)       
1 43107U 18003A   25273.46610847 -.00000030  00000+0  00000+0 0  9994
2 43107  54.5592 311.3635 0002505  95.4611 264.6300  1.86232594 52511
BEIDOU-3 M8 (C28)       
1 43108U 18003B   25276.09518414 -.00000021  00000+0  00000+0 0  9994
2 43108  54.5499 311.2552 0004892 259.3898 100.6220  1.86230958 52572
BEIDOU-3 M4 (C22)       
1 43207U 18018A   25275.99980811  .00000034  00000+0  00000+0 0  9995
2 43207  56.4241  71.6436 0005107  38.3909 321.6687  1.86231135 51955
BEIDOU-3 M3 (C21)       
1 43208U 18018B   25273.38182135  .00000023  00000+0  00000+0 0  9998
2 43208  56.4190  71.8095 0006692 327.9361  32.0458  1.86221902 51906
BEIDOU-3 M9 (C29)       
1 43245U 18029A   25275.20879926 -.00000018  00000+0  00000+0 0  9990
2 43245  54.4286 308.9639 0002193 243.8732 116.1685  1.86232791 51093
BEIDOU-3 M10 (C30)      
1 43246U 18029B   25276.21745976 -.00000017  00000+0  00000+0 0  9999
2 43246  54.4249 308.9552 0002841 356.0209   4.0422  1.86229103 51090
BEIDOU-2 IGSO-7 (C16)   
1 43539U 18057A   25274.64885891 -.00000142  00000+0  00000+0 0  9990
2 43539  55.1684 165.3047 0092034 236.0987 315.2150  1.00279228 26538
BEIDOU-3 M5 (C23)       
1 43581U 18062A   25275.90523412 -.00000004  00000+0  00000+0 0  9998
2 43581  54.0930 191.0533 0003543 308.3667  51.6247  1.86228701 48848
BEIDOU-3 M6 (C24)       
1 43582U 18062B   25274.15785696 -.00000008  00000+0  00000+0 0  9993
2 43582  54.0929 191.1017 0006258  27.7607 332.2968  1.86229878 48818
BEIDOU-3 M12 (C26)      
1 43602U 18067A   25273.02095203 -.00000006  00000+0  00000+0 0  9992
2 43602  54.1866 189.8644 0008361  32.4517 327.6277  1.86227635 48272
BEIDOU-3 M11 (C25)      
1 43603U 18067B   25274.22919078 -.00000008  00000+0  00000+0 0  9993
2 43603  54.1837 189.7877 0004957  22.9076 337.1408  1.86227140 48328
BEIDOU-3 M13 (C32)      
1 43622U 18072A   25276.33432108  .00000032  00000+0  00000+0 0  9994
2 43622  56.3979  71.1500 0003915 313.9023  46.0872  1.86231069 47870
BEIDOU-3 M14 (C33)      
1 43623U 18072B   25273.51501990  .00000023  00000+0  00000+0 0  9998
2 43623  56.3971  71.2372 0003059  17.0167 343.0159  1.86231167 47812
BEIDOU-3 M16 (C35)      
1 43647U 18078A   25275.82163580 -.00000017  00000+0  00000+0 0  9999
2 43647  54.3241 309.0009 0005903  19.5397 340.5479  1.86232299 47361
BEIDOU-3 M15 (C34)      
1 43648U 18078B   25275.95082316 -.00000017  00000+0  00000+0 0  9991
2 43648  54.3197 308.9976 0002474  22.0228 338.0529  1.86232277 47381
BEIDOU-3 G1 (C59)       
1 43683U 18085A   25276.60643149 -.00000273  00000+0  00000+0 0  9992
2 43683   2.9269 104.6812 0003779  11.0103 255.2453  1.00275048 25480
BEIDOU-3 M17 (C36)      
1 43706U 18093A   25273.73175409 -.00000007  00000+0  00000+0 0  9992
2 43706  54.1767 191.1001 0008346 297.1089 269.6607  1.86228378 46700
BEIDOU-3 M18 (C37)      
1 43707U 18093B   25275.96951074 -.00000004  00000+0  00000+0 0  9997
2 43707  54.1773 191.0161 0007210 331.8780  28.1064  1.86229963 46747
BEIDOU-3 IGSO-1 (C38)   
1 44204U 19023A   25275.77420852 -.00000197  00000+0  00000+0 0  9991
2 44204  58.3352  40.3119 0025811 216.5523 152.0153  1.00265714  4637
BEIDOU-2 G8 (C01)       
1 44231U 19027A   25276.52595972 -.00000245  00000+0  00000+0 0  9999
2 44231   1.4779  74.4095 0006551 261.5273  10.4421  1.00273868 23503
BEIDOU-3 IGSO-2 (C39)   
1 44337U 19035A   25276.59181389 -.00000132  00000+0  00000+0 0  9990
2 44337  55.2142 161.1207 0037369 203.1123 338.7591  1.00293116 23093
BEIDOU-3 M24 (C46)      
1 44542U 19061A   25273.89313994 -.00000007  00000+0  00000+0 0  9997
2 44542  54.4040 191.4744 0008946   8.3618 351.6770  1.86229396 40965
BEIDOU-3 M23 (C45)      
1 44543U 19061B   25273.18006308 -.00000005  00000+0  00000+0 0  9996
2 44543  54.4029 191.4668 0005734 356.9217 157.8424  1.86229648 40958
BEIDOU-3 IGSO-3 (C40)   
1 44709U 19073A   25276.42391772 -.00000144  00000+0  00000+0 0  9999
2 44709  55.2432 283.6729 0045449 191.9239 167.9994  1.00265177 21887
BEIDOU-3 M22 (C44)      
1 44793U 19078A   25275.88197355 -.00000018  00000+0  00000+0 0  9997
2 44793  54.1706 308.8727 0004565  25.8112 334.2763  1.86232130 39855
BEIDOU-3 M21 (C43)      
1 44794U 19078B   25276.01801348 -.00000017  00000+0  00000+0 0  9997
2 44794  54.1440 308.8343 0002746  11.0754 348.9954  1.86227754 39864
BEIDOU-3 M19 (C41)      
1 44864U 19090A   25273.84519920  .00000026  00000+0  00000+0 0  9998
2 44864  56.3294  71.3781 0015579 286.0003 252.4200  1.86231615 39404
BEIDOU-3 M20 (C42)      
1 44865U 19090B   25273.04471216  .00000020  00000+0  00000+0 0  9990
2 44865  56.3305  71.4388 0012941 301.1562 150.1969  1.86231615 39373
BEIDOU-3 G2 (C60)       
1 45344U 20017A   25276.58453387 -.00000138  00000+0  00000+0 0  9996
2 45344   2.8661  42.3996 0001682 265.5871 355.0381  1.00271304 20688
BEIDOU-3 G3 (C61)       
1 45807U 20040A   25276.61742841 -.00000352  00000+0  00000+0 0  9994
2 45807   1.8154  65.7919 0004172 315.7373 323.9152  1.00274528 19492
BEIDOU-3 G4 (C62)       
1 56564U 23066A   25276.60039392 -.00000112  00000+0  00000+0 0  9990
2 56564   0.9768 297.0471 0005708 216.4701 235.2432  1.00271169  8825
BEIDOU-3 M28 (C50)      
1 58654U 23207A   25276.09671269  .00000030  00000+0  00000+0 0  9995
2 58654  55.5223  70.9915 0000168 125.4129 234.6113  1.86229795 12059
BEIDOU-3 M26 (C48)      
1 58655U 23207B   25275.35799294  .00000029  00000+0  00000+0 0  9991
2 58655  55.5237  71.0027 0001511 224.6818 135.3298  1.86231432 12020
BEIDOU-3 M25 (C47)      
1 61186U 24168B   25276.51487594 -.00000020  00000+0  00000+0 0  9999
2 61186  54.7022 311.1550 0005260 281.6495 251.1555  1.86230078  7004
BEIDOU-3 M27 (C49)      
1 61187U 24168C   25273.45840134 -.00000030  00000+0  00000+0 0  9994
2 61187  54.7002 311.2448 0001440 305.2041 113.3065  1.86230340  4426
